#dP2020 10 16  0  0  0.00000000      96 __u+U ITR00 FIT  IAC
## 2127 432000.00000000   900.00000000 59138 0.0000000000000
+  115   C06C07C08C09C10C11C12C13C14C16C19C20C21C22C23C24C25
+        C26C27C28C29C30C32C33C34C35C36C37C38C39C40C43C44C45
+        C46E01E02E03E04E05E07E08E09E11E12E13E14E15E18E19E21
+        E24E25E26E27E30E31E33E36G01G02G03G04G05G06G07G08G09
+        G10G11G12G13G15G16G17G18G19G20G21G22G24G25G26G27G28
+        G29G30G31G32J01J02J03R01R02R03R04R05R07R08R09R11R12
+        R13R14R15R16R17R18R19R20R21R22R23R24R26  0  0  0  0
++         9  9  6  7  8  9  8  8  6  9  6  7  8  5  7  8  7
++         8  4  8  6  7  9  7  6  6  7  7 11  9  9  8  8  7
++         9  7  7  6  6  8  7  6  5  8  6  6  7  6  6  6  6
++         6  7  7  6  7  6  6  6  8  6  7  7  7  6  5  6  5
++         6  6  6  6  7  6  6  6  8  6  7  6  6  6  6  6  6
++         6  5  7  6  8  8  8  7  7  7  6  6  8  6  7  7  5
++         6  7  8  7  6  6  8  7  7  9  6  6  6  0  0  0  0
%c M  cc GPS ccc cccc cccc cccc cccc ccccc ccccc ccccc ccccc
%c cc cc ccc ccc cccc cccc cccc cccc ccccc ccccc ccccc ccccc
%f  0.0000000  0.000000000  0.00000000000  0.000000000000000
%f  0.0000000  0.000000000  0.00000000000  0.000000000000000
%i    0    0    0    0      0      0      0      0         0
%i    0    0    0    0      0      0      0      0         0
/* INFORMATION & ANALYSIS CENTER (IAC)      ULTRA-RAPID DATA
/* S/V CLOCKS ARE ALIGNED TO GNSS TIME                      
/* G:C1WC2W R:C1PC2P E:C1XC5X C:C2IC6I J:C1CC2S             
/* PCV:IGS14_2118 OL/AL:FES2004  NONE     YN ORB:CoN CLK:CoN
*  2020 10 16 20 15  0.00000000
PC06 -11750.567924  21482.991022 -33897.211043     52.101626
PC07 -24284.307232  30473.892219  15694.441586   -105.432165
PC08 -10640.298974  37296.525773  17088.268139   -612.556182
PC09   4364.913708  28999.427827 -29896.230049    877.175813
PC10 -10464.942208  31537.057076  25939.376845   -162.615809
PC11   6863.169080  21618.497982  16358.588482   -689.132131
PC12 -10258.672330  11411.713807  23344.740225    559.641740
PC13  -2183.435188  42111.260533   3732.117677    698.814234
PC14  -2754.687776  16929.898183 -21984.442885    -16.046156
PC16  -7845.358820  23209.963388 -34210.982867   -596.705609
PC19  -8084.219079 -14017.194651  22749.095840    584.201448
PC20  12026.914393 -17163.101540  18445.595356   -862.338022
PC21 -25820.044861  10140.204729  -2938.262246   -698.455106
PC22 -24016.126690  -2689.593871  13924.732174   -774.887663
PC23  14694.642535   7539.789214  22506.414165   -895.265665
PC24  -8904.226150  26217.648578  -3590.982647   -720.883956
PC25   5066.643758  23681.808084  13884.219074   -793.508690
PC26 -16028.961312  14244.226907 -17878.717990    869.381154
PC27  17808.950239  -3199.021059 -21257.830070    416.809691
PC28  22770.972145  13546.400497  -8778.278977   -157.447845
PC29 -15198.805567 -21702.043868  -8758.745163    298.282579
PC30   2168.150075 -17859.357458 -21337.957189    390.612150
PC32  25762.734420 -10331.864017   2924.655559   -903.100671
PC33   8097.525389  14026.422112 -22729.668812   -813.213569
PC34  -1697.483452  18180.092581  21093.364713   -830.602105
PC35 -23225.976364 -12920.486339   8549.435503   -604.580985
PC36  -4307.602927 -23938.709818 -13646.694410   -874.594018
PC37  16489.318874 -13072.152635  18346.105713   -896.116950
PC38  -8805.287845  39272.307624  12836.449763    106.561045
PC39  -3202.154817  24964.746193 -33827.785562     23.931145
PC40 -17897.886756  27444.725541  26459.256905     91.557073
PC43  14762.046779  21868.223638   9061.847898   -419.550551
PC44 -17920.087787   3649.207565  21082.039862 999999.999999
PC45 -14608.113768  -7404.579669 -22579.705841 999999.999999
PC46   8411.303032 -26423.464307   2970.086062    589.444147
PE01  -5071.386168  23932.680847  16675.739579   -962.785940
PE02   4980.694832 -23887.581571 -16737.639905    169.406380
PE03  -4190.211941 -17515.866254  23481.105607   -354.482405
PE04  23360.113613  12899.101089 -12814.674574   -628.462078
PE05  17687.493977 -11923.953825  20519.798070   -337.321176
PE07 -29051.505139   -576.587057  -5611.796982   -449.582262
PE08 -23625.739428 -12554.717003  12643.503093   6105.580119
PE09  29043.961201    360.645327   5747.698753   5896.596692
PE11  17677.036671   2582.273992 -23607.241159   6280.898817
PE12  16447.271144  22013.986874 -10994.272050   5553.367197
PE13 -17684.986010  -2874.007480  23564.704932    404.626934
PE14  24339.736952  -6356.112321 -19984.062819  -1192.594981
PE15 -16555.902316 -21850.667458  11158.957366    848.137122
PE18 -21011.957248     83.860066  11713.697538  -1302.717525
PE19   1629.202361  17264.551858 -23990.432489    104.704468
PE21 -18893.887100  22780.525821   -535.043247   -626.981759
PE24  22075.899559  -7696.525012  18140.608564   -532.820670
PE25  18985.959671 -22697.446208    720.028969   -518.385219
PE26  -8281.726810  18294.045321  21755.548309   2605.445677
PE27 -22106.595708   8300.659813 -17840.301158    112.308004
PE30 -11853.618621 -11593.493975 -24518.277970   3500.304724
PE31  12317.562983  10989.278989  24585.838471   -474.915376
PE33   5686.005081  27981.697801   7816.604553   -462.809629
PE36   8429.856888 -17765.558654 -22117.944918    493.604642
PG01 -13885.787718   5618.887302  21663.406484    815.127934
PG02  14046.145167  16183.682541 -15066.009471   -530.447463
PG03 -22769.159562  12028.543444   6210.758750   -328.053695
PG04 -21406.484340   2243.189479 -15582.808932   -145.937406
PG05  16563.618714   5081.977589 -20334.905495    -23.566465
PG06   5769.736068  25650.784342  -3569.327762   -333.578716
PG07  -6993.485259  21393.001431 -13381.719456   -394.798297
PG08 -25322.730087  -4978.467486   6864.478012    -51.674113
PG09 -11230.361181  11677.061769 -21109.387795   -301.028946
PG10   4933.428866 -19186.510916  17653.580759   -481.346386
PG11 -18815.179307  -2907.149393  17915.695890   -135.102563
PG12  23505.343414  -9064.073954   7932.064408     53.187501
PG13  22961.379689  13472.655606   -309.966210     55.393186
PG15  25659.578295   2102.659823   6927.641887   -196.505442
PG16 -17060.518991  -5239.242444 -20033.427821   -223.327160
PG17   7397.906905  17595.319034  18919.455117    340.744312
PG18   6386.544884 -22445.582879 -12646.460499    307.963812
PG19  13915.550474  17902.711653  13601.066152    -90.916415
PG20  13735.263998 -21400.181066   7125.168140    526.374726
PG21 -15945.483008 -11241.749270  18932.484033     58.440091
PG22 -21901.756763   6372.695622  13676.732204   -742.474304
PG24  15505.946626  -2192.117973  21243.990074    -19.865769
PG25  19522.290531 -17578.667120  -3006.758752      6.429122
PG26  -6528.264267 -14550.318544 -21244.677933    296.357245
PG27 -23098.410916 -12793.541399  -4400.113505   -419.945812
PG28  -4969.480067  18417.867886  19131.632757    666.906174
PG29  14253.925139  -8324.535515 -20858.671529   -216.902677
PG30   -770.241694  26022.681121  -4582.471212   -321.135416
PG31  -6782.657626 -24737.954166  -5926.117475    -75.383844
PG32  -8426.692429 -17396.407590  18368.246216    358.272513
PJ01 -34795.843405  17571.326735 -11444.552983   -340.168777
PJ02 -25875.427988  32331.026659  -3647.607443     -5.249156
PJ03 -26627.253073  21888.636345  29348.892764     -2.043542
PR01 -22572.459123   7480.621404  -9220.040712     69.157005
PR02  -3925.028484  11157.986838 -22574.165607    450.225139
PR03  14871.124064   7552.257146 -19245.059060     23.901302
PR04  24987.255994   -400.609898  -5076.296384     58.222328
PR05  21059.658210  -7961.727334  11969.691512     59.398508
PR07 -15474.041436  -7352.190820  18945.564561    -40.826381
PR08 -24997.902169    315.175809   5164.568330    -55.206183
PR09   6384.052867 -23729.755525  -6951.471736      2.644742
PR11 -13005.854816   3699.100137 -21597.550508    -41.345543
PR12 -13602.446986  18780.629780 -10617.172859    172.363572
PR13  -6480.120067  23730.975850   6734.505510    -45.327336
PR14   4475.547871  14522.185899  20501.462636     56.672138
PR15  12656.791554  -2804.449987  21994.889234    106.991214
PR16  13105.407025 -19409.652736   9941.441677     -7.308293
PR17  15174.909273  20534.698585   -260.663874    366.638445
PR18  16661.638269  10704.677147 -16036.630088     52.950979
PR19   9790.294240  -3980.582417 -23215.826545   -115.692273
PR20  -4208.276768 -19032.839568 -16464.001280   -424.308754
PR21 -15466.705026 -20213.757534   1361.828530   -159.497307
PR22 -16390.170763  -9895.865062  16888.691056    -77.851268
PR23  -4722.718009  10760.887604  22634.337197    338.791603
PR24   4632.023503  19495.107694  15817.058970     17.101934
PR26   -440.362125 -15863.032534 -19946.126889   -363.389865
EOF
